H1 CPF  1  HTS 2022 11 26 12  8301 larets           NONE
H2  0304206 5557    27944 2022 11 26  0  0  0 2022 12 01  0  0  0   180 1 1  0 0 0
H5  0.0560 
H9 
10 0 59912  33480.00000  0   -1777867.179   -3002633.683    6126181.519
10 0 59912  33660.00000  0   -1532853.785   -1765249.605    6648753.883
10 0 59912  33840.00000  0   -1198753.494    -471139.619    6927268.333
10 0 59912  34020.00000  0    -786886.340     830349.949    6951432.670
10 0 59912  34200.00000  0    -312707.359    2089924.587    6720257.600
10 0 59912  34380.00000  0     204775.277    3260225.242    6242107.937
10 0 59912  34560.00000  0     743760.910    4297633.302    5534423.170
10 0 59912  34740.00000  0    1280568.195    5163936.371    4623112.536
10 0 59912  34920.00000  0    1790666.632    5827791.811    3541631.763
10 0 59912  35100.00000  0    2249785.366    6265926.285    2329767.431
10 0 59912  35280.00000  0    2635050.374    6464016.829    1032151.581
10 0 59912  35460.00000  0    2926084.353    6417189.885    -303435.389
10 0 59912  35640.00000  0    3106011.793    6130113.329   -1627887.731
10 0 59912  35820.00000  0    3162319.330    5616684.459   -2892641.672
10 0 59912  36000.00000  0    3087525.740    4899332.520   -4051504.057
10 0 59912  36180.00000  0    2879625.952    4007976.251   -5062357.063
10 0 59912  36360.00000  0    2542292.253    2978707.312   -5888664.390
10 0 59912  36540.00000  0    2084834.960    1852274.368   -6500732.866
10 0 59912  36720.00000  0    1521930.519     672441.432   -6876696.963
10 0 59912  36900.00000  0     873136.814    -515705.711   -7003214.337
10 0 59912  37080.00000  0     162210.937   -1667449.190   -6875874.991
10 0 59912  37260.00000  0    -583745.525   -2740072.606   -6499320.184
10 0 59912  37440.00000  0   -1335289.478   -3694398.139   -5887085.443
10 0 59912  37620.00000  0   -2061762.829   -4496191.477   -5061160.391
10 0 59912  37800.00000  0   -2732510.004   -5117392.653   -4051272.148
10 0 59912  37980.00000  0   -3318150.101   -5537131.452   -2893891.101
10 0 59912  38160.00000  0   -3791850.251   -5742478.912   -1630976.363
10 0 59912  38340.00000  0   -4130545.558   -5728898.776    -308491.328
10 0 59912  38520.00000  0   -4316041.578   -5500365.373    1025267.627
10 0 59912  38700.00000  0   -4335937.213   -5069130.622    2321462.789
10 0 59912  38880.00000  0   -4184315.055   -4455142.467    3532548.023
10 0 59912  39060.00000  0   -3862160.293   -3685144.292    4614056.290
10 0 59912  39240.00000  0   -3377485.634   -2791501.493    5526265.183
10 0 59912  39420.00000  0   -2745156.456   -1810817.014    6235666.525
10 0 59912  39600.00000  0   -1986428.591    -782409.694    6716193.728
10 0 59912  39780.00000  0   -1128214.746     253285.922    6950168.543
10 0 59912  39960.00000  0    -202112.560    1256323.808    6928931.001
10 0 59912  40140.00000  0     756765.476    2188796.281    6653156.953
10 0 59912  40320.00000  0    1711131.003    3016282.760    6132849.357
10 0 59912  40500.00000  0    2622979.484    3709142.103    5387000.861
10 0 59912  40680.00000  0    3455122.323    4243609.857    4442934.182
10 0 59912  40860.00000  0    4172732.548    4602652.968    3335323.206
10 0 59912  41040.00000  0    4744838.508    4776548.009    2104926.627
10 0 59912  41220.00000  0    5145693.792    4763148.579     797059.475
10 0 59912  41400.00000  0    5355946.708    4567824.450    -540126.481
10 0 59912  41580.00000  0    5363545.897    4203070.920   -1857485.260
10 0 59912  41760.00000  0    5164331.147    3687812.270   -3106744.834
10 0 59912  41940.00000  0    4762288.260    3046444.239   -4242316.543
10 0 59912  42120.00000  0    4169458.739    2307673.943   -5222968.088
10 0 59912  42300.00000  0    3405520.052    1503218.124   -6013290.830
10 0 59912  42480.00000  0    2497069.146     666432.785   -6584913.221
10 0 59912  42660.00000  0    1476649.433    -169060.993   -6917434.329
10 0 59912  42840.00000  0     381571.188    -970701.552   -6999069.616
10 0 59912  43020.00000  0    -747439.496   -1708220.546   -6827008.912
10 0 59912  43200.00000  0   -1867717.983   -2354747.246   -6407487.228
10 0 59912  43380.00000  0   -2936227.579   -2887760.428   -5755575.788
10 0 59912  43560.00000  0   -3911171.866   -3289861.604   -4894693.842
10 0 59912  43740.00000  0   -4753613.439   -3549350.863   -3855843.463
10 0 59912  43920.00000  0   -5429038.554   -3660578.792   -2676567.132
10 0 59912  44100.00000  0   -5908803.180   -3624056.751   -1399649.548
10 0 59912  44280.00000  0   -6171390.080   -3446313.521     -71594.735
10 0 59912  44460.00000  0   -6203409.646   -3139498.339    1259069.460
10 0 59912  44640.00000  0   -6000284.827   -2720743.739    2543596.737
10 0 59912  44820.00000  0   -5566569.777   -2211314.078    3734854.765
10 0 59912  45000.00000  0   -4915888.021   -1635586.548    4789098.647
10 0 59912  45180.00000  0   -4070487.600   -1019914.448    5667606.270
10 0 59912  45360.00000  0   -3060447.901    -391437.628    6338106.771
10 0 59912  45540.00000  0   -1922571.701     223107.701    6775962.396
10 0 59912  45720.00000  0    -699007.099     798523.235    6965056.488
10 0 59912  45900.00000  0     564335.087    1312179.822    6898371.106
10 0 59912  46080.00000  0    1819515.185    1744913.497    6578246.250
10 0 59912  46260.00000  0    3018395.838    2081752.581    6016312.243
10 0 59912  46440.00000  0    4114510.050    2312448.948    5233096.310
10 0 59912  46620.00000  0    5064900.774    2431796.581    4257304.146
10 0 59912  46800.00000  0    5831860.133    2439726.697    3124792.427
10 0 59912  46980.00000  0    6384493.724    2341168.325    1877246.122
10 0 59912  47160.00000  0    6700021.713    2145680.763     560614.268
10 0 59912  47340.00000  0    6764754.824    1866874.305    -776638.573
10 0 59912  47520.00000  0    6574681.010    1521650.472   -2085385.068
10 0 59912  47700.00000  0    6135642.378    1129302.109   -3317697.608
10 0 59912  47880.00000  0    5463097.153     710524.232   -4428643.120
10 0 59912  48060.00000  0    4581482.518     286392.493   -5377924.309
10 0 59912  48240.00000  0    3523231.931    -122636.527   -6131300.838
10 0 59912  48420.00000  0    2327509.301    -497655.120   -6661754.558
10 0 59912  48600.00000  0    1038718.282    -822127.810   -6950373.635
10 0 59912  48780.00000  0    -295146.878   -1082579.161   -6986947.460
10 0 59912  48960.00000  0   -1624257.937   -1269123.023   -6770273.264
10 0 59912  49140.00000  0   -2898763.795   -1375821.585   -6308178.050
10 0 59912  49320.00000  0   -4070607.674   -1400865.342   -5617256.800
10 0 59912  49500.00000  0   -5095304.785   -1346571.737   -4722337.149
10 0 59912  49680.00000  0   -5933632.796   -1219201.285   -3655663.839
10 0 59912  49860.00000  0   -6553168.902   -1028595.364   -2455811.520
10 0 59912  50040.00000  0   -6929607.742    -787646.491   -1166343.764
10 0 59912  50220.00000  0   -7047790.973    -511621.209     165745.630
10 0 59912  50400.00000  0   -6902384.664    -217361.913    1491756.792
10 0 59912  50580.00000  0   -6498159.637      77589.348    2763097.355
10 0 59912  50760.00000  0   -5849854.693     355899.778    3933109.627
10 0 59912  50940.00000  0   -4981621.643     601341.419    4958826.287
10 0 59912  51120.00000  0   -3926083.978     799624.349    5802572.724
10 0 59912  51300.00000  0   -2723063.847     939126.533    6433354.841
10 0 59912  51480.00000  0   -1418035.414    1011484.948    6827990.620
10 0 59912  51660.00000  0     -60368.643    1012024.348    6971945.916
10 0 59912  51840.00000  0    1298558.944     940004.313    6859853.530
10 0 59912  52020.00000  0    2607317.586     798675.829    6495714.465
10 0 59912  52200.00000  0    3816388.183     595144.699    5892774.916
10 0 59912  52380.00000  0    4880068.824     340044.593    5073074.777
10 0 59912  52560.00000  0    5758252.049      47029.665    4066672.759
10 0 59912  52740.00000  0    6418005.813    -267892.914    2910563.402
10 0 59912  52920.00000  0    6834882.758    -587158.570    1647308.415
10 0 59912  53100.00000  0    6993884.246    -892536.063     323434.039
10 0 59912  53280.00000  0    6890033.742   -1166064.300   -1012338.932
10 0 59912  53460.00000  0    6528520.404   -1390985.752   -2310958.289
10 0 59912  53640.00000  0    5924406.095   -1552624.788   -3524900.728
10 0 59912  53820.00000  0    5101923.077   -1639164.503   -4609941.745
10 0 59912  54000.00000  0    4093413.512   -1642282.438   -5526759.956
10 0 59912  54180.00000  0    2937975.042   -1557620.240   -6242318.370
10 0 59912  54360.00000  0    1679886.721   -1385069.282   -6730979.945
10 0 59912  54540.00000  0     366892.069   -1128862.827   -6975341.856
10 0 59912  54720.00000  0    -951598.139    -797479.503   -6966778.910
10 0 59912  54900.00000  0   -2226322.837    -403362.171   -6705699.320
10 0 59912  55080.00000  0   -3409959.000      37540.156   -6201514.731
10 0 59912  55260.00000  0   -4458830.643     506393.279   -5472329.890
10 0 59912  55440.00000  0   -5334501.143     982244.409   -4544356.687
10 0 59912  55620.00000  0   -6005198.952    1442912.571   -3451051.130
10 0 59912  55800.00000  0   -6447021.227    1865974.867   -2231979.174
10 0 59912  55980.00000  0   -6644856.123    2229803.701    -931434.231
10 0 59912  56160.00000  0   -6592974.648    2514608.869     403155.303
10 0 59912  56340.00000  0   -6295246.776    2703429.661    1722972.864
10 0 59912  56520.00000  0   -5764960.278    2783026.105    2979637.050
10 0 59912  56700.00000  0   -5024247.068    2744618.711    4127021.183
10 0 59912  56880.00000  0   -4103144.462    2584433.632    5122986.421
10 0 59912  57060.00000  0   -3038342.964    2304027.626    5930949.448
10 0 59912  57240.00000  0   -1871686.062    1910380.202    6521230.944
10 0 59912  57420.00000  0    -648486.006    1415745.138    6872135.536
10 0 59912  57600.00000  0     584262.684     837268.171    6970727.692
10 0 59912  57780.00000  0    1779700.798     196387.675    6813296.423
99
